{
    "links": {
        "self": "http://www.neowsapp.com/rest/v1/neo/3765699?api_key=iIulBulltgU6a56xZRHN4H3l9WmuAYTsLGpBGhQ2"
    },
    "id": "3765699",
    "neo_reference_id": "3765699",
    "name": "(2016 XD18)",
    "designation": "2016 XD18",
    "nasa_jpl_url": "http://ssd.jpl.nasa.gov/sbdb.cgi?sstr=3765699",
    "absolute_magnitude_h": 24.4,
    "estimated_diameter": {
        "kilometers": {
            "estimated_diameter_min": 0.0350392641,
            "estimated_diameter_max": 0.0783501764
        },
        "meters": {
            "estimated_diameter_min": 35.0392641108,
            "estimated_diameter_max": 78.3501764334
        },
        "miles": {
            "estimated_diameter_min": 0.0217723826,
            "estimated_diameter_max": 0.0486845275
        },
        "feet": {
            "estimated_diameter_min": 114.9582192654,
            "estimated_diameter_max": 257.0543928497
        }
    },
    "is_potentially_hazardous_asteroid": false,
    "close_approach_data": [
        {
            "close_approach_date": "2016-11-26",
            "close_approach_date_full": "2016-Nov-26 06:12",
            "epoch_date_close_approach": 1480140720000,
            "relative_velocity": {
                "kilometers_per_second": "8.32379631",
                "kilometers_per_hour": "29965.666716177",
                "miles_per_hour": "18619.499965949"
            },
            "miss_distance": {
                "astronomical": "0.0748781018",
                "lunar": "29.1275816002",
                "kilometers": "11201604.538923166",
                "miles": "6960354.3045690508"
            },
            "orbiting_body": "Earth"
        }
    ],
    "orbital_data": {
        "orbit_id": "4",
        "orbit_determination_date": "2017-04-06 08:21:34",
        "first_observation_date": "2016-11-21",
        "last_observation_date": "2016-12-18",
        "data_arc_in_days": 27,
        "observations_used": 24,
        "orbit_uncertainty": "8",
        "minimum_orbit_intersection": ".0497531",
        "jupiter_tisserand_invariant": "2.991",
        "epoch_osculation": "2457719.5",
        "eccentricity": ".6304785337558372",
        "semi_major_axis": "2.811496414494532",
        "inclination": "1.734809819970006",
        "ascending_node_longitude": "246.0997458611951",
        "orbital_period": "1721.887319841991",
        "perihelion_distance": "1.038908277424226",
        "perihelion_argument": "163.4481184190033",
        "aphelion_distance": "4.584084551564838",
        "perihelion_time": "2457708.423676212933",
        "mean_anomaly": "2.315759293534974",
        "mean_motion": ".2090729142677207",
        "equinox": "J2000",
        "orbit_class": {
            "orbit_class_type": "AMO",
            "orbit_class_description": "Near-Earth asteroid orbits similar to that of 1221 Amor",
            "orbit_class_range": "1.017 AU < q (perihelion) < 1.3 AU"
        }
    },
    "is_sentry_object": false
}